NANOSATC-BR1            
1 40024U 14033Q   26068.98267556  .00020336  00000+0  74295-3 0  9994
2 40024  98.0845  92.7804 0004644 147.6715 212.4808 15.28136801638811
STARLINK-1153           
1 45080U 20006AN  26068.80847146 -.00004860  00000+0 -15625-3 0  9996
2 45080  53.1601 257.2166 0000819  65.4906 294.6179 15.29349548336899
