[{"OBJECT_NAME":"NANOSATC-BR1","OBJECT_ID":"2014-033Q","EPOCH":"2026-03-09T23:35:03.168384","MEAN_MOTION":15.28136801,"ECCENTRICITY":0.00046435,"INCLINATION":98.0845,"RA_OF_ASC_NODE":92.7804,"ARG_OF_PERICENTER":147.6715,"MEAN_ANOMALY":212.4808,"EPHEMERIS_TYPE":0,"CLASSIFICATION_TYPE":"U","NORAD_CAT_ID":40024,"ELEMENT_SET_NO":999,"REV_AT_EPOCH":63881,"BSTAR":0.00074295057,"MEAN_MOTION_DOT":0.00020336,"MEAN_MOTION_DDOT":0},{"OBJECT_NAME":"STARLINK-1153","OBJECT_ID":"2020-006AN","EPOCH":"2026-03-09T19:24:11.934144","MEAN_MOTION":15.29349548,"ECCENTRICITY":8.191e-5,"INCLINATION":53.1601,"RA_OF_ASC_NODE":257.2166,"ARG_OF_PERICENTER":65.4906,"MEAN_ANOMALY":294.6179,"EPHEMERIS_TYPE":0,"CLASSIFICATION_TYPE":"U","NORAD_CAT_ID":45080,"ELEMENT_SET_NO":999,"REV_AT_EPOCH":33689,"BSTAR":-0.00015625305,"MEAN_MOTION_DOT":-4.86e-5,"MEAN_MOTION_DDOT":0}]
